NORAD_CAT_ID,OBJECT_NAME,OBJECT_TYPE,EPOCH,MEAN_MOTION,ECCENTRICITY,INCLINATION,RA_OF_ASC_NODE,ARG_OF_PERICENTER,MEAN_ANOMALY,BSTAR,MEAN_MOTION_DOT,MEAN_MOTION_DDOT,TLE_LINE0,TLE_LINE1,TLE_LINE2,SEMIMAJOR_AXIS,PERIOD,APOGEE,PERIGEE,DECAYED
52641.0,STARLINK-3991,PAYLOAD,2023-10-03 08:02:33,15.08845552,0.0001595,53.2165,287.3036,94.3586,265.7588,0.00025163,3.72e-05,0.0,0 STARLINK-3991,1 52641U 22052AV  23276.33510620  .00003720  00000-0  25163-3 0  9991,2 52641  53.2165 287.3036 0001595  94.3586 265.7588 15.08845552 77026,6917.863,95.437,540.832,538.625,0.0
52641.0,STARLINK-3991,PAYLOAD,2023-10-04 01:31:48,15.08837286,0.0001394,53.2161,284.0319,88.3937,271.7215,0.00017679,2.527e-05,0.0,0 STARLINK-3991,1 52641U 22052AV  23277.06375350  .00002527  00000-0  17679-3 0  9998,2 52641  53.2161 284.0319 0001394  88.3937 271.7215 15.08837286 77502,6917.889,95.438,540.718,538.789,0.0
52641.0,STARLINK-3991,PAYLOAD,2023-10-04 09:28:43,15.08845819,0.0001648,53.2162,282.5474,100.4907,259.627,0.00022545,3.302e-05,0.0,0 STARLINK-3991,1 52641U 22052AV  23277.39494954  .00003302  00000-0  22545-3 0  9996,2 52641  53.2162 282.5474 0001648 100.4907 259.6270 15.08845819 77184,6917.863,95.437,540.868,538.588,0.0
52641.0,STARLINK-3991,PAYLOAD,2023-10-04 17:25:39,15.08842209,0.0001943,53.2154,281.0576,88.3639,271.7576,0.00010183,1.333e-05,0.0,0 STARLINK-3991,1 52641U 22052AV  23277.72614877  .00001333  00000-0  10183-3 0  9998,2 52641  53.2154 281.0576 0001943  88.3639 271.7576 15.08842209 77236,6917.874,95.437,541.083,538.394,0.0
52641.0,STARLINK-3991,PAYLOAD,2023-10-05 04:33:21,15.08841961,0.0001638,53.2168,278.9766,89.8086,270.3094,0.00010301,1.352e-05,0.0,0 STARLINK-3991,1 52641U 22052AV  23278.18983214  .00001352  00000-0  10301-3 0  9996,2 52641  53.2168 278.9766 0001638  89.8086 270.3094 15.08841961 77672,6917.874,95.437,540.873,538.606,0.0
52641.0,STARLINK-3991,PAYLOAD,2023-10-05 07:44:07,15.08845844,0.0001722,53.2161,278.3815,89.6754,270.4436,0.00017306,2.468e-05,0.0,0 STARLINK-3991,1 52641U 22052AV  23278.32230995  .00002468  00000-0  17306-3 0  9994,2 52641  53.2161 278.3815 0001722  89.6754 270.4436 15.08845844 77325,6917.863,95.437,540.919,538.536,0.0
52641.0,STARLINK-3991,PAYLOAD,2023-10-05 17:16:26,15.08843292,0.0001822,53.2161,276.5954,87.0448,273.0753,0.00029142,4.353e-05,0.0,0 STARLINK-3991,1 52641U 22052AV  23278.71975164  .00004353  00000-0  29142-3 0  9997,2 52641  53.2161 276.5954 0001822  87.0448 273.0753 15.08843292 77384,6917.87,95.437,540.996,538.475,0.0
52641.0,STARLINK-3991,PAYLOAD,2023-10-06 09:10:17,15.08847359,0.0001359,53.2163,273.6205,89.2475,270.8673,0.00021986,3.214e-05,0.0,0 STARLINK-3991,1 52641U 22052AV  23279.38214909  .00003214  00000-0  21986-3 0  9997,2 52641  53.2163 273.6205 0001359  89.2475 270.8673 15.08847359 77858,6917.858,95.437,540.663,538.783,0.0
52641.0,STARLINK-3991,PAYLOAD,2023-10-06 17:07:13,15.08842035,0.0001528,53.2157,272.1348,102.518,257.5983,0.00012652,1.726e-05,0.0,0 STARLINK-3991,1 52641U 22052AV  23279.71335088  .00001726  00000-0  12652-3 0  9992,2 52641  53.2157 272.1348 0001528 102.5180 257.5983 15.08842035 77530,6917.874,95.437,540.796,538.682,0.0
52641.0,STARLINK-3991,PAYLOAD,2023-10-06 23:28:46,15.0883798,0.0001599,53.2162,270.9454,101.7013,258.4159,8.9985e-05,1.144e-05,0.0,0 STARLINK-3991,1 52641U 22052AV  23279.97831392  .00001144  00000-0  89985-4 0  9997,2 52641  53.2162 270.9454 0001599 101.7013 258.4159 15.08837980 77947,6917.887,95.438,540.858,538.645,0.0
52641.0,STARLINK-3991,PAYLOAD,2023-10-07 09:01:04,15.0884725,0.0001536,53.2149,269.163,100.5721,259.5444,0.00021763,3.178e-05,0.0,0 STARLINK-3991,1 52641U 22052AV  23280.37574963  .00003178  00000-0  21763-3 0  9999,2 52641  53.2149 269.1630 0001536 100.5721 259.5444 15.08847250 78000,6917.858,95.437,540.786,538.661,0.0
52641.0,STARLINK-3991,PAYLOAD,2023-10-08 02:30:19,15.08842411,0.0001688,53.2157,265.8905,103.4173,256.7008,0.00016746,2.378e-05,0.0,0 STARLINK-3991,1 52641U 22052AV  23281.10439322  .00002378  00000-0  16746-3 0  9996,2 52641  53.2157 265.8905 0001688 103.4173 256.7008 15.08842411 78119,6917.873,95.437,540.906,538.57,0.0
52641.0,STARLINK-3991,PAYLOAD,2023-10-08 08:51:51,15.08849181,0.0001628,53.2165,264.7007,86.9831,273.1348,0.00025181,3.723e-05,0.0,0 STARLINK-3991,1 52641U 22052AV  23281.36935100  .00003723  00000-0  25181-3 0  9997,2 52641  53.2165 264.7007 0001628  86.9831 273.1348 15.08849181 77782,6917.852,95.437,540.844,538.591,0.0
52641.0,STARLINK-3991,PAYLOAD,2023-10-09 05:31:52,15.0885313,0.0001489,53.2164,260.8361,96.778,263.3381,0.00032682,4.919e-05,0.0,0 STARLINK-3991,1 52641U 22052AV  23282.23046866  .00004919  00000-0  32682-3 0  9998,2 52641  53.2164 260.8361 0001489  96.7780 263.3381 15.08853130 78281,6917.84,95.437,540.735,538.675,0.0
52641.0,STARLINK-3991,PAYLOAD,2023-10-09 21:25:44,15.08842948,0.0001506,53.2158,257.8618,91.8313,268.2851,0.0001715,2.443e-05,0.0,0 STARLINK-3991,1 52641U 22052AV  23282.89287328  .00002443  00000-0  17150-3 0  9993,2 52641  53.2158 257.8618 0001506  91.8313 268.2851 15.08842948 78385,6917.871,95.437,540.778,538.695,0.0
52641.0,STARLINK-3991,PAYLOAD,2023-10-10 08:33:26,15.08846671,0.0001437,53.2165,255.7803,89.6845,270.4312,0.0002561,3.791e-05,0.0,0 STARLINK-3991,1 52641U 22052AV  23283.35655184  .00003791  00000-0  25610-3 0  9991,2 52641  53.2165 255.7803 0001437  89.6845 270.4312 15.08846671 78085,6917.86,95.437,540.719,538.731,0.0
52641.0,STARLINK-3991,PAYLOAD,2023-10-10 14:54:59,15.0883428,0.0001626,53.2162,254.5903,86.4819,273.636,3.6616e-05,2.95e-06,0.0,0 STARLINK-3991,1 52641U 22052AV  23283.62151756  .00000295  00000-0  36616-4 0  9992,2 52641  53.2162 254.5903 0001626  86.4819 273.6360 15.08834280 78492,6917.898,95.438,540.888,538.638,0.0
52641.0,STARLINK-3991,PAYLOAD,2023-10-11 06:48:50,15.08843624,0.0001327,53.2159,251.6194,97.6742,262.4401,0.00031964,4.803e-05,0.0,0 STARLINK-3991,1 52641U 22052AV  23284.28391633  .00004803  00000-0  31964-3 0  9994,2 52641  53.2159 251.6194 0001327  97.6742 262.4401 15.08843624 78220,6917.869,95.437,540.652,538.816,0.0
52641.0,STARLINK-3991,PAYLOAD,2023-10-11 21:07:18,15.08839399,0.0001694,53.2173,248.9459,92.0256,268.093,0.00016476,2.335e-05,0.0,0 STARLINK-3991,1 52641U 22052AV  23284.88008090  .00002335  00000-0  16476-3 0  9991,2 52641  53.2173 248.9459 0001694  92.0256 268.0930 15.08839399 78688,6917.882,95.438,540.919,538.575,0.0
52641.0,STARLINK-3991,PAYLOAD,2023-10-12 14:36:33,15.08842984,0.0001572,53.2166,245.6701,85.8232,274.294,0.00030476,4.566e-05,0.0,0 STARLINK-3991,1 52641U 22052AV  23285.60872291  .00004566  00000-0  30476-3 0  9998,2 52641  53.2166 245.6701 0001572  85.8232 274.2940 15.08842984 78429,6917.871,95.437,540.824,538.649,0.0
52641.0,STARLINK-3991,PAYLOAD,2023-10-13 04:55:01,15.08844176,0.0001914,53.2169,242.9943,87.8338,272.2873,0.00024538,3.62e-05,0.0,0 STARLINK-3991,1 52641U 22052AV  23286.20488395  .00003620  00000-0  24538-3 0  9995,2 52641  53.2169 242.9943 0001914  87.8338 272.2873 15.08844176 78887,6917.868,95.437,541.057,538.409,0.0
52641.0,STARLINK-3991,PAYLOAD,2023-10-13 06:30:24,15.0885524,0.0001312,53.2158,242.698,106.9153,253.1983,0.00038725,5.883e-05,0.0,0 STARLINK-3991,1 52641U 22052AV  23286.27111649  .00005883  00000-0  38725-3 0  9993,2 52641  53.2158 242.6980 0001312 106.9153 253.1983 15.08855240 78898,6917.834,95.437,540.606,538.791,0.0
52641.0,STARLINK-3991,PAYLOAD,2023-10-13 14:27:20,15.08845686,0.0001511,53.2163,241.2114,95.4064,264.7101,0.00021274,3.1e-05,0.0,0 STARLINK-3991,1 52641U 22052AV  23286.60232125  .00003100  00000-0  21274-3 0  9994,2 52641  53.2163 241.2114 0001511  95.4064 264.7101 15.08845686 78570,6917.863,95.437,540.773,538.683,0.0
52641.0,STARLINK-3991,PAYLOAD,2023-10-13 20:48:53,15.0884832,0.0001742,53.2171,240.0227,91.8885,268.2306,0.00029669,4.438e-05,0.0,0 STARLINK-3991,1 52641U 22052AV  23286.86728146  .00004438  00000-0  29669-3 0  9996,2 52641  53.2171 240.0227 0001742  91.8885 268.2306 15.08848320 78987,6917.855,95.437,540.925,538.515,0.0
52641.0,STARLINK-3991,PAYLOAD,2023-10-14 03:10:24,15.08861769,0.0001765,53.2168,238.8308,109.2077,250.9106,0.00048993,7.522e-05,0.0,0 STARLINK-3991,1 52641U 22052AV  23287.13223363  .00007522  00000-0  48993-3 0  9996,2 52641  53.2168 238.8308 0001765 109.2077 250.9106 15.08861769 79024,6917.814,95.436,540.9,538.458,0.0
52641.0,STARLINK-3991,PAYLOAD,2023-10-14 20:39:40,15.08832262,0.0002123,53.2169,235.5615,82.8497,277.2736,-0.00016676,-2.941e-05,0.0,0 STARLINK-3991,1 52641U 22052AV  23287.86088458 -.00002941  00000-0 -16676-3 0  9995,2 52641  53.2169 235.5615 0002123  82.8497 277.2736 15.08832262 79130,6917.904,95.438,541.238,538.3,0.0
52641.0,STARLINK-3991,PAYLOAD,2023-10-15 14:08:55,15.08829004,0.0001486,53.2159,232.2876,104.538,255.5777,0.00013773,1.904e-05,0.0,0 STARLINK-3991,1 52641U 22052AV  23288.58952844  .00001904  00000-0  13773-3 0  9995,2 52641  53.2159 232.2876 0001486 104.5380 255.5777 15.08829004 78870,6917.914,95.438,540.807,538.751,0.0
52641.0,STARLINK-3991,PAYLOAD,2023-10-16 06:02:46,15.08859478,0.0001433,53.2165,229.3168,83.141,276.9745,0.0012802,0.00020156,0.0,0 STARLINK-3991,1 52641U 22052AV  23289.25192813  .00020156  00000-0  12802-2 0  9993,2 52641  53.2165 229.3168 0001433  83.1410 276.9745 15.08859478 79349,6917.821,95.436,540.677,538.695,0.0
52641.0,STARLINK-3991,PAYLOAD,2023-10-16 20:21:14,15.08849807,0.0001463,53.2163,226.6367,86.7936,273.3223,0.00050839,7.814e-05,0.0,0 STARLINK-3991,1 52641U 22052AV  23289.84808824  .00007814  00000-0  50839-3 0  9993,2 52641  53.2163 226.6367 0001463  86.7936 273.3223 15.08849807 79069,6917.85,95.437,540.727,538.703,0.0
52641.0,STARLINK-3991,PAYLOAD,2023-10-17 12:15:05,15.08855495,0.000147,53.2176,223.6654,83.7645,276.3515,0.00039032,5.932e-05,0.0,0 STARLINK-3991,1 52641U 22052AV  23290.51048321  .00005932  00000-0  39032-3 0  9998,2 52641  53.2176 223.6654 0001470  83.7645 276.3515 15.08855495 79169,6917.833,95.437,540.715,538.681,0.0
